[{"OBJECT_NAME":"STARLINK-36925","OBJECT_ID":"2026-041C","EPOCH":"2026-03-09T18:00:01.999296","MEAN_MOTION":15.91656437,"ECCENTRICITY":4.36e-5,"INCLINATION":53.1593,"RA_OF_ASC_NODE":61.9639,"ARG_OF_PERICENTER":89.819,"MEAN_ANOMALY":355.556,"EPHEMERIS_TYPE":0,"CLASSIFICATION_TYPE":"U","NORAD_CAT_ID":68042,"ELEMENT_SET_NO":999,"REV_AT_EPOCH":238,"BSTAR":-0.0050235,"MEAN_MOTION_DOT":-0.01668376,"MEAN_MOTION_DDOT":0.00077512},{"OBJECT_NAME":"STARLINK-36902","OBJECT_ID":"2026-041D","EPOCH":"2026-03-09T18:00:01.999296","MEAN_MOTION":15.91936552,"ECCENTRICITY":5.07e-5,"INCLINATION":53.1597,"RA_OF_ASC_NODE":61.9541,"ARG_OF_PERICENTER":101.1689,"MEAN_ANOMALY":348.8436,"EPHEMERIS_TYPE":0,"CLASSIFICATION_TYPE":"U","NORAD_CAT_ID":68043,"ELEMENT_SET_NO":999,"REV_AT_EPOCH":238,"BSTAR":-0.004875,"MEAN_MOTION_DOT":-0.01643017,"MEAN_MOTION_DDOT":0.00075567},{"OBJECT_NAME":"STARLINK-36966","OBJECT_ID":"2026-041E","EPOCH":"2026-03-09T18:00:01.999296","MEAN_MOTION":15.92219801,"ECCENTRICITY":6.92e-5,"INCLINATION":53.1594,"RA_OF_ASC_NODE":61.9436,"ARG_OF_PERICENTER":80.986,"MEAN_ANOMALY":14.0717,"EPHEMERIS_TYPE":0,"CLASSIFICATION_TYPE":"U","NORAD_CAT_ID":68044,"ELEMENT_SET_NO":999,"REV_AT_EPOCH":238,"BSTAR":-0.004844,"MEAN_MOTION_DOT":-0.01656597,"MEAN_MOTION_DDOT":0.00076932},{"OBJECT_NAME":"STARLINK-36864","OBJECT_ID":"2026-041F","EPOCH":"2026-03-09T18:00:01.999296","MEAN_MOTION":15.92077232,"ECCENTRICITY":5.93e-5,"INCLINATION":53.1593,"RA_OF_ASC_NODE":61.9486,"ARG_OF_PERICENTER":97.1995,"MEAN_ANOMALY":355.5937,"EPHEMERIS_TYPE":0,"CLASSIFICATION_TYPE":"U","NORAD_CAT_ID":68045,"ELEMENT_SET_NO":999,"REV_AT_EPOCH":238,"BSTAR":-0.0048773,"MEAN_MOTION_DOT":-0.01655665,"MEAN_MOTION_DDOT":0.00076745},{"OBJECT_NAME":"STARLINK-36321","OBJECT_ID":"2026-041G","EPOCH":"2026-03-09T18:00:01.999296","MEAN_MOTION":15.92479803,"ECCENTRICITY":6.93e-5,"INCLINATION":53.1595,"RA_OF_ASC_NODE":61.9332,"ARG_OF_PERICENTER":94.9004,"MEAN_ANOMALY":5.2142,"EPHEMERIS_TYPE":0,"CLASSIFICATION_TYPE":"U","NORAD_CAT_ID":68046,"ELEMENT_SET_NO":999,"REV_AT_EPOCH":238,"BSTAR":-0.0047108,"MEAN_MOTION_DOT":-0.01633299,"MEAN_MOTION_DDOT":0.00075147},{"OBJECT_NAME":"STARLINK-36181","OBJECT_ID":"2026-041H","EPOCH":"2026-03-09T18:00:01.999296","MEAN_MOTION":15.92355973,"ECCENTRICITY":7.52e-5,"INCLINATION":53.1595,"RA_OF_ASC_NODE":61.9387,"ARG_OF_PERICENTER":84.2564,"MEAN_ANOMALY":13.3103,"EPHEMERIS_TYPE":0,"CLASSIFICATION_TYPE":"U","NORAD_CAT_ID":68047,"ELEMENT_SET_NO":999,"REV_AT_EPOCH":226,"BSTAR":-0.0048051,"MEAN_MOTION_DOT":-0.01655004,"MEAN_MOTION_DDOT":0.00076899},{"OBJECT_NAME":"STARLINK-36318","OBJECT_ID":"2026-041J","EPOCH":"2026-03-09T18:00:01.999296","MEAN_MOTION":15.92626322,"ECCENTRICITY":5.05e-5,"INCLINATION":53.1594,"RA_OF_ASC_NODE":61.9285,"ARG_OF_PERICENTER":85.9943,"MEAN_ANOMALY":16.4557,"EPHEMERIS_TYPE":0,"CLASSIFICATION_TYPE":"U","NORAD_CAT_ID":68048,"ELEMENT_SET_NO":999,"REV_AT_EPOCH":238,"BSTAR":-0.00471,"MEAN_MOTION_DOT":-0.01645384,"MEAN_MOTION_DDOT":0.00076282},{"OBJECT_NAME":"STARLINK-36885","OBJECT_ID":"2026-041K","EPOCH":"2026-03-09T18:00:01.999296","MEAN_MOTION":15.92882356,"ECCENTRICITY":7.73e-5,"INCLINATION":53.1594,"RA_OF_ASC_NODE":61.9173,"ARG_OF_PERICENTER":80.0277,"MEAN_ANOMALY":27.7605,"EPHEMERIS_TYPE":0,"CLASSIFICATION_TYPE":"U","NORAD_CAT_ID":68049,"ELEMENT_SET_NO":999,"REV_AT_EPOCH":238,"BSTAR":-0.00462,"MEAN_MOTION_DOT":-0.01635891,"MEAN_MOTION_DDOT":0.00075666},{"OBJECT_NAME":"STARLINK-36945","OBJECT_ID":"2026-041L","EPOCH":"2026-03-09T18:00:01.999296","MEAN_MOTION":15.92756677,"ECCENTRICITY":6.47e-5,"INCLINATION":53.1593,"RA_OF_ASC_NODE":61.9228,"ARG_OF_PERICENTER":89.1771,"MEAN_ANOMALY":15.9844,"EPHEMERIS_TYPE":0,"CLASSIFICATION_TYPE":"U","NORAD_CAT_ID":68050,"ELEMENT_SET_NO":999,"REV_AT_EPOCH":238,"BSTAR":-0.0046785,"MEAN_MOTION_DOT":-0.01645584,"MEAN_MOTION_DDOT":0.00076397},{"OBJECT_NAME":"STARLINK-35911","OBJECT_ID":"2026-041M","EPOCH":"2026-03-09T18:00:01.999296","MEAN_MOTION":15.93016279,"ECCENTRICITY":5.63e-5,"INCLINATION":53.1595,"RA_OF_ASC_NODE":61.9119,"ARG_OF_PERICENTER":90.2872,"MEAN_ANOMALY":20.2676,"EPHEMERIS_TYPE":0,"CLASSIFICATION_TYPE":"U","NORAD_CAT_ID":68051,"ELEMENT_SET_NO":999,"REV_AT_EPOCH":234,"BSTAR":-0.0046269,"MEAN_MOTION_DOT":-0.01649674,"MEAN_MOTION_DDOT":0.00076944},{"OBJECT_NAME":"STARLINK-35808","OBJECT_ID":"2026-041N","EPOCH":"2026-03-09T18:00:01.999296","MEAN_MOTION":15.93141552,"ECCENTRICITY":6.51e-5,"INCLINATION":53.1592,"RA_OF_ASC_NODE":61.9062,"ARG_OF_PERICENTER":98.7314,"MEAN_ANOMALY":14.2915,"EPHEMERIS_TYPE":0,"CLASSIFICATION_TYPE":"U","NORAD_CAT_ID":68052,"ELEMENT_SET_NO":999,"REV_AT_EPOCH":234,"BSTAR":-0.004551,"MEAN_MOTION_DOT":-0.01633519,"MEAN_MOTION_DDOT":0.00075659},{"OBJECT_NAME":"STARLINK-36919","OBJECT_ID":"2026-041P","EPOCH":"2026-03-09T18:00:01.999296","MEAN_MOTION":15.93272608,"ECCENTRICITY":5.81e-5,"INCLINATION":53.1593,"RA_OF_ASC_NODE":61.9009,"ARG_OF_PERICENTER":91.4005,"MEAN_ANOMALY":24.2799,"EPHEMERIS_TYPE":0,"CLASSIFICATION_TYPE":"U","NORAD_CAT_ID":68053,"ELEMENT_SET_NO":999,"REV_AT_EPOCH":238,"BSTAR":-0.0045434,"MEAN_MOTION_DOT":-0.01641951,"MEAN_MOTION_DDOT":0.00076478},{"OBJECT_NAME":"STARLINK-36924","OBJECT_ID":"2026-041Q","EPOCH":"2026-03-09T18:00:01.999296","MEAN_MOTION":15.93530818,"ECCENTRICITY":7.17e-5,"INCLINATION":53.1592,"RA_OF_ASC_NODE":61.8914,"ARG_OF_PERICENTER":84.3044,"MEAN_ANOMALY":36.1336,"EPHEMERIS_TYPE":0,"CLASSIFICATION_TYPE":"U","NORAD_CAT_ID":68054,"ELEMENT_SET_NO":999,"REV_AT_EPOCH":238,"BSTAR":-0.004435,"MEAN_MOTION_DOT":-0.01624994,"MEAN_MOTION_DDOT":0.00075226},{"OBJECT_NAME":"STARLINK-35998","OBJECT_ID":"2026-041R","EPOCH":"2026-03-09T18:00:01.999296","MEAN_MOTION":15.93402341,"ECCENTRICITY":6.83e-5,"INCLINATION":53.1594,"RA_OF_ASC_NODE":61.8958,"ARG_OF_PERICENTER":92.3101,"MEAN_ANOMALY":25.6679,"EPHEMERIS_TYPE":0,"CLASSIFICATION_TYPE":"U","NORAD_CAT_ID":68055,"ELEMENT_SET_NO":999,"REV_AT_EPOCH":234,"BSTAR":-0.0044784,"MEAN_MOTION_DOT":-0.01629755,"MEAN_MOTION_DDOT":0.00075535},{"OBJECT_NAME":"STARLINK-36845","OBJECT_ID":"2026-041S","EPOCH":"2026-03-09T18:00:01.999296","MEAN_MOTION":15.93664119,"ECCENTRICITY":6.9e-5,"INCLINATION":53.1591,"RA_OF_ASC_NODE":61.8862,"ARG_OF_PERICENTER":81.6193,"MEAN_ANOMALY":41.217,"EPHEMERIS_TYPE":0,"CLASSIFICATION_TYPE":"U","NORAD_CAT_ID":68056,"ELEMENT_SET_NO":999,"REV_AT_EPOCH":238,"BSTAR":-0.0044157,"MEAN_MOTION_DOT":-0.01629317,"MEAN_MOTION_DDOT":0.00075695},{"OBJECT_NAME":"STARLINK-36954","OBJECT_ID":"2026-041T","EPOCH":"2026-03-09T18:00:01.999296","MEAN_MOTION":15.93794025,"ECCENTRICITY":5.46e-5,"INCLINATION":53.1593,"RA_OF_ASC_NODE":61.881,"ARG_OF_PERICENTER":85.0613,"MEAN_ANOMALY":40.2189,"EPHEMERIS_TYPE":0,"CLASSIFICATION_TYPE":"U","NORAD_CAT_ID":68057,"ELEMENT_SET_NO":999,"REV_AT_EPOCH":238,"BSTAR":-0.0043894,"MEAN_MOTION_DOT":-0.01630746,"MEAN_MOTION_DDOT":0.00075915}]
