STARLINK-36925          
1 68042U 26041C   26068.75002314 -.01668376  77512-3 -50235-2 0  9998
2 68042  53.1593  61.9639 0000436  89.8190 355.5560 15.91656437  2389
STARLINK-36902          
1 68043U 26041D   26068.75002314 -.01643017  75567-3 -48750-2 0  9991
2 68043  53.1597  61.9541 0000507 101.1689 348.8436 15.91936552  2382
STARLINK-36966          
1 68044U 26041E   26068.75002314 -.01656597  76932-3 -48440-2 0  9992
2 68044  53.1594  61.9436 0000692  80.9860  14.0717 15.92219801  2389
STARLINK-36864          
1 68045U 26041F   26068.75002314 -.01655665  76745-3 -48773-2 0  9999
2 68045  53.1593  61.9486 0000593  97.1995 355.5937 15.92077232  2380
STARLINK-36321          
1 68046U 26041G   26068.75002314 -.01633299  75147-3 -47108-2 0  9995
2 68046  53.1595  61.9332 0000693  94.9004   5.2142 15.92479803  2387
STARLINK-36181          
1 68047U 26041H   26068.75002314 -.01655004  76899-3 -48051-2 0  9997
2 68047  53.1595  61.9387 0000752  84.2564  13.3103 15.92355973  2262
STARLINK-36318          
1 68048U 26041J   26068.75002314 -.01645384  76282-3 -47100-2 0  9998
2 68048  53.1594  61.9285 0000505  85.9943  16.4557 15.92626322  2383
STARLINK-36885          
1 68049U 26041K   26068.75002314 -.01635891  75666-3 -46200-2 0  9996
2 68049  53.1594  61.9173 0000773  80.0277  27.7605 15.92882356  2383
STARLINK-36945          
1 68050U 26041L   26068.75002314 -.01645584  76397-3 -46785-2 0  9998
2 68050  53.1593  61.9228 0000647  89.1771  15.9844 15.92756677  2384
STARLINK-35911          
1 68051U 26041M   26068.75002314 -.01649674  76944-3 -46269-2 0  9998
2 68051  53.1595  61.9119 0000563  90.2872  20.2676 15.93016279  2344
STARLINK-35808          
1 68052U 26041N   26068.75002314 -.01633519  75659-3 -45510-2 0  9990
2 68052  53.1592  61.9062 0000651  98.7314  14.2915 15.93141552  2343
STARLINK-36919          
1 68053U 26041P   26068.75002314 -.01641951  76478-3 -45434-2 0  9995
2 68053  53.1593  61.9009 0000581  91.4005  24.2799 15.93272608  2387
STARLINK-36924          
1 68054U 26041Q   26068.75002314 -.01624994  75226-3 -44350-2 0  9990
2 68054  53.1592  61.8914 0000717  84.3044  36.1336 15.93530818  2385
STARLINK-35998          
1 68055U 26041R   26068.75002314 -.01629755  75535-3 -44784-2 0  9995
2 68055  53.1594  61.8958 0000683  92.3101  25.6679 15.93402341  2349
STARLINK-36845          
1 68056U 26041S   26068.75002314 -.01629317  75695-3 -44157-2 0  9991
2 68056  53.1591  61.8862 0000690  81.6193  41.2170 15.93664119  2388
STARLINK-36954          
1 68057U 26041T   26068.75002314 -.01630746  75915-3 -43894-2 0  9992
2 68057  53.1593  61.8810 0000546  85.0613  40.2189 15.93794025  2388
